GLOBALSTAR M067         
1 32263U 07048A   25177.92869257 -.00000074  00000+0  17095-3 0  9991
2 32263  51.9746   7.4278 0001414  42.2786  57.3912 12.40674147810694
GLOBALSTAR M070         
1 32264U 07048B   25177.78834047 -.00000112  00000+0 -46628-4 0  9994
2 32264  51.9749  99.2532 0000592  64.4798 325.4836 12.62319300814885
GLOBALSTAR M066         
1 32265U 07048C   25177.02570031 -.00000097  00000+0 -23192-4 0  9995
2 32265  51.9697   0.2504 0002819 344.4220 188.9317 12.29904762816382
GLOBALSTAR M068         
1 32266U 07048D   25177.75160603 -.00000118  00000+0 -75997-4 0  9990
2 32266  51.9890 273.1025 0001534 147.9348  20.5936 12.62824667818761
GLOBALSTAR M079         
1 37188U 10054A   25177.83156153 -.00000112  00000+0 -48047-4 0  9993
2 37188  52.0036 110.4257 0000590  10.0266  25.3340 12.62265143677676
GLOBALSTAR M074         
1 37189U 10054B   25177.57137528 -.00000121  00000+0 -97555-4 0  9998
2 37189  52.0011 110.5405 0000672  38.7931 132.1515 12.62256877678242
GLOBALSTAR M076         
1 37190U 10054C   25177.88618646 -.00000113  00000+0 -52706-4 0  9999
2 37190  52.0026 109.7524 0000739  27.7771  15.2910 12.62263310678000
